DUBAISAT-1              
1 35682U 09041B   26177.24634087  .00000866  00000+0  13572-3 0  9995
2 35682  98.0060 310.4051 0011304  47.6026 312.6138 14.75136946906439
OCEANSAT-2              
1 35931U 09051A   26177.27825512 -.00000226  00000+0 -12853-3 0  9994
2 35931  98.2319 163.2225 0015972 208.6953 151.3337 13.99661637880609
WORLDVIEW-2 (WV-2)      
1 35946U 09055A   26177.20998019 -.00000323  00000+0 -92556-4 0  9997
2 35946  98.4771 250.5349 0004270 180.6140 179.5042 14.37900586876941
SMOS                    
1 36036U 09059A   26177.22394474  .00000253  00000+0  94531-4 0  9994
2 36036  98.4426   4.4265 0001316  88.8999 271.2340 14.39777160874751
YAOGAN-7                
1 36110U 09069A   26177.29588259  .00000482  00000+0  73803-4 0  9994
2 36110  98.0063  63.1063 0024940  13.2566 346.9294 14.78018348890974
TANDEM-X                
1 36605U 10030A   26175.56897165  .00000223  00000+0  13790-4 0  9992
2 36605  97.4453 183.1708 0001789  93.6569 266.4871 15.19149086887769
CARTOSAT-2B             
1 36795U 10035A   26177.27208109  .00000460  00000+0  69913-4 0  9992
2 36795  97.9954 227.7642 0011961 154.7007 205.4793 14.78671262861196
YAOGAN-10               
1 36834U 10038A   26177.32208324  .00002549  00000+0  30245-3 0  9999
2 36834  97.8979 200.6537 0001768  86.0171  35.9486 14.85377744858560
COSMO-SKYMED 4          
1 37216U 10060A   26177.28762890  .00000679  00000+0  91828-4 0  9994
2 37216  97.8892   0.7559 0001506  85.4611 274.6774 14.82153149845919
RESOURCESAT-2           
1 37387U 11015A   26177.23878282  .00000089  00000+0  60607-4 0  9998
2 37387  98.7641 244.6180 0010495 226.8443 133.1858 14.21601881787461
HAIYANG-2A              
1 37781U 11043A   26177.28449097 -.00000091  00000+0 -50895-4 0  9993
2 37781  99.3396 179.7574 0005066  76.1881 283.9832 13.74096842747901
RASAT                   
1 37791U 11044D   26177.30519822  .00000612  00000+0  11462-3 0  9995
2 37791  98.0576 268.5630 0020866 159.8129 236.6116 14.68174578794524
SRMSAT                  
1 37841U 11058D   26177.21996469  .00000369  00000+0  56732-4 0  9991
2 37841  19.9735   4.7963 0011715 303.6491 228.3381 14.11577318759094
PLEIADES 1A             
1 38012U 11076F   26177.32108895  .00000238  00000+0  61159-4 0  9996
2 38012  98.1975 252.3014 0001762  90.7729 345.5235 14.58535918773320
ZIYUAN 1-02C (ZY 1-02C) 
1 38038U 11079A   26177.33055738  .00000308  00000+0  11543-3 0  9994
2 38038  98.4071 244.4480 0005166 283.8739 148.7728 14.38221145760525
ARIRANG-3 (KOMPSAT-3)   
1 38338U 12025B   26177.20238818  .00000428  00000+0  94287-4 0  9997
2 38338  98.1174 134.5068 0006825  86.9812 273.2170 14.62213574752662
EXACTVIEW-1 (ADS-1B)    
1 38709U 12039C   26177.29862659  .00000097  00000+0  61464-4 0  9992
2 38709  98.9786 294.8950 0011593 141.3403 218.8608 14.24987097724005
SPOT 6                  
1 38755U 12047A   26177.25324231  .00000024  00000+0  15074-4 0  9993
2 38755  98.2118 244.4564 0001339  74.2538 285.8809 14.58526781734374
PLEIADES 1B             
1 39019U 12068A   26177.27211557  .00000354  00000+0  85960-4 0  9995
2 39019  98.1947 252.1989 0001711  86.2586 273.8809 14.58565763722179
GOKTURK 2               
1 39030U 12073A   26177.30334128  .00000354  00000+0  58857-4 0  9993
2 39030  97.6822  14.2779 0001251  56.9361 303.1970 14.75550101725859
LANDSAT 8               
1 39084U 13008A   26177.22654135  .00000299  00000+0  76547-4 0  9999
2 39084  98.2299 247.2543 0001355  93.7074 266.4279 14.57100084699219
SARAL                   
1 39086U 13009A   26177.25855722  .00000081  00000+0  45636-4 0  9994
2 39086  98.5558   3.7108 0000686 235.2244 124.8876 14.32857973696904
GAOFEN-1                
1 39150U 13018A   26177.27932353  .00000212  00000+0  37618-4 0  9991
2 39150  97.9093 249.1626 0015851 234.6226 125.3503 14.76544237709583
VNREDSAT 1              
1 39160U 13021B   26177.31044567  .00000439  00000+0  90746-4 0  9994
2 39160  97.9080 230.3769 0001738  85.0821 275.0581 14.64864981701622
ARIRANG-5 (KOMPSAT-5)   
1 39227U 13042A   26177.27783928  .00001393  00000+0  10384-3 0  9996
2 39227  97.6191   3.8499 0005129 101.4645 258.7158 15.04509710705223
SKYSAT-A                
1 39418U 13066C   26177.11955219  .00002722  00000+0  15708-3 0  9993
2 39418  97.3811 226.2320 0019653 284.2691  75.6357 15.13019553689839
DUBAISAT-2              
1 39419U 13066D   26177.28061999  .00004293  00000+0  26588-3 0  9998
2 39419  97.4566 167.1867 0011439  12.7424 347.4092 15.10246673687767
GPM-CORE                
1 39574U 14009C   26177.20887228  .00012286  00000+0  26564-3 0  9996
2 39574  64.9720 277.9082 0011460 255.2596 104.7275 15.44755217699202
SENTINEL-1A             
1 39634U 14016A   26177.28177219 -.00000161  00000+0 -24452-4 0  9997
2 39634  98.1782 184.6816 0001368  83.1396 276.9959 14.59199885651349
KAZEOSAT 1              
1 39731U 14024A   26177.24983868  .00000122  00000+0  50192-4 0  9990
2 39731  98.3205 249.4718 0001217  75.2900 284.8425 14.42083156639860
