OBJECT_NAME,OBJECT_ID,EPOCH,MEAN_MOTION,ECCENTRICITY,INCLINATION,RA_OF_ASC_NODE,ARG_OF_PERICENTER,MEAN_ANOMALY,EPHEMERIS_TYPE,CLASSIFICATION_TYPE,NORAD_CAT_ID,ELEMENT_SET_NO,REV_AT_EPOCH,BSTAR,MEAN_MOTION_DOT,MEAN_MOTION_DDOT
DUBAISAT-1,2009-041B,2026-06-26T05:54:43.851168,14.75136946,.00113048,98.0060,310.4051,47.6026,312.6138,0,U,35682,999,90643,.13571508E-3,.866E-5,0
OCEANSAT-2,2009-051A,2026-06-26T06:40:41.242368,13.99661637,.00159724,98.2319,163.2225,208.6953,151.3337,0,U,35931,999,88060,-.12853459E-3,-.226E-5,0
WORLDVIEW-2 (WV-2),2009-055A,2026-06-26T05:02:22.288416,14.37900586,.00042702,98.4771,250.5349,180.6140,179.5042,0,U,35946,999,87694,-.92555606E-4,-.323E-5,0
SMOS,2009-059A,2026-06-26T05:22:28.825536,14.39777160,.00013169,98.4426,4.4265,88.8999,271.2340,0,U,36036,999,87475,.94530549E-4,.253E-5,0
YAOGAN-7,2009-069A,2026-06-26T07:06:04.255776,14.78018348,.00249403,98.0063,63.1063,13.2566,346.9294,0,U,36110,999,89097,.73802682E-4,.482E-5,0
TANDEM-X,2010-030A,2026-06-24T13:39:19.150560,15.19149086,.0001789,97.4453,183.1708,93.6569,266.4871,0,U,36605,999,88776,.13790195E-4,.223E-5,0
CARTOSAT-2B,2010-035A,2026-06-26T06:31:47.806176,14.78671262,.00119617,97.9954,227.7642,154.7007,205.4793,0,U,36795,999,86119,.69913446E-4,.46E-5,0
YAOGAN-10,2010-038A,2026-06-26T07:43:47.991936,14.85377744,.00017687,97.8979,200.6537,86.0171,35.9486,0,U,36834,999,85856,.30244759E-3,.2549E-4,0
COSMO-SKYMED 4,2010-060A,2026-06-26T06:54:11.136960,14.82153149,.00015065,97.8892,0.7559,85.4611,274.6774,0,U,37216,999,84591,.9182827E-4,.679E-5,0
RESOURCESAT-2,2011-015A,2026-06-26T05:43:50.835648,14.21601881,.00104956,98.7641,244.6180,226.8443,133.1858,0,U,37387,999,78746,.60606797E-4,.89E-6,0
HAIYANG-2A,2011-043A,2026-06-26T06:49:40.019808,13.74096842,.00050662,99.3396,179.7574,76.1881,283.9832,0,U,37781,999,74790,-.50894603E-4,-.91E-6,0
RASAT,2011-044D,2026-06-26T07:19:29.126208,14.68174578,.00208667,98.0576,268.5630,159.8129,236.6116,0,U,37791,999,79452,.11462425E-3,.612E-5,0
SRMSAT,2011-058D,2026-06-26T05:16:44.949216,14.11577318,.00117153,19.9735,4.7963,303.6491,228.3381,0,U,37841,999,75909,.56732331E-4,.369E-5,0
PLEIADES 1A,2011-076F,2026-06-26T07:42:22.085280,14.58535918,.00017623,98.1975,252.3014,90.7729,345.5235,0,U,38012,999,77332,.61158822E-4,.238E-5,0
ZIYUAN 1-02C (ZY 1-02C),2011-079A,2026-06-26T07:56:00.157632,14.38221145,.0005166,98.4071,244.4480,283.8739,148.7728,0,U,38038,999,76052,.11543107E-3,.308E-5,0
ARIRANG-3 (KOMPSAT-3),2012-025B,2026-06-26T04:51:26.338752,14.62213574,.00068251,98.1174,134.5068,86.9812,273.2170,0,U,38338,999,75266,.94286916E-4,.428E-5,0
EXACTVIEW-1 (ADS-1B),2012-039C,2026-06-26T07:10:01.337376,14.24987097,.00115937,98.9786,294.8950,141.3403,218.8608,0,U,38709,999,72400,.61463995E-4,.97E-6,0
SPOT 6,2012-047A,2026-06-26T06:04:40.135584,14.58526781,.00013392,98.2118,244.4564,74.2538,285.8809,0,U,38755,999,73437,.15073881E-4,.24E-6,0
PLEIADES 1B,2012-068A,2026-06-26T06:31:50.785248,14.58565763,.00017113,98.1947,252.1989,86.2586,273.8809,0,U,39019,999,72217,.85960465E-4,.354E-5,0
GOKTURK 2,2012-073A,2026-06-26T07:16:48.686592,14.75550101,.00012512,97.6822,14.2779,56.9361,303.1970,0,U,39030,999,72585,.58857088E-4,.354E-5,0
LANDSAT 8,2013-008A,2026-06-26T05:26:13.172640,14.57100084,.00013555,98.2299,247.2543,93.7074,266.4279,0,U,39084,999,69921,.76547396E-4,.299E-5,0
SARAL,2013-009A,2026-06-26T06:12:19.343808,14.32857973,.00006866,98.5558,3.7108,235.2244,124.8876,0,U,39086,999,69690,.45636073E-4,.81E-6,0
GAOFEN-1,2013-018A,2026-06-26T06:42:13.552992,14.76544237,.00158518,97.9093,249.1626,234.6226,125.3503,0,U,39150,999,70958,.37617721E-4,.212E-5,0
VNREDSAT 1,2013-021B,2026-06-26T07:27:02.505888,14.64864981,.00017381,97.9080,230.3769,85.0821,275.0581,0,U,39160,999,70162,.90746038E-4,.439E-5,0
ARIRANG-5 (KOMPSAT-5),2013-042A,2026-06-26T06:40:05.313792,15.04509710,.00051295,97.6191,3.8499,101.4645,258.7158,0,U,39227,999,70522,.1038417E-3,.1393E-4,0
SKYSAT-A,2013-066C,2026-06-26T02:52:09.309216,15.13019553,.00196536,97.3811,226.2320,284.2691,75.6357,0,U,39418,999,68983,.15708105E-3,.2722E-4,0
DUBAISAT-2,2013-066D,2026-06-26T06:44:05.567136,15.10246673,.00114391,97.4566,167.1867,12.7424,347.4092,0,U,39419,999,68776,.26588302E-3,.4293E-4,0
GPM-CORE,2014-009C,2026-06-26T05:00:46.564992,15.44755217,.00114602,64.9720,277.9082,255.2596,104.7275,0,U,39574,999,69920,.26564327E-3,.12286E-3,0
SENTINEL-1A,2014-016A,2026-06-26T06:45:45.117216,14.59199885,.0001368,98.1782,184.6816,83.1396,276.9959,0,U,39634,999,65134,-.24451994E-4,-.161E-5,0
KAZEOSAT 1,2014-024A,2026-06-26T05:59:46.061952,14.42083156,.00012174,98.3205,249.4718,75.2900,284.8425,0,U,39731,999,63986,.5019244E-4,.122E-5,0
